CSS (TIANHE)            
1 48274U 21035A   24109.94624415  .00029101  00000+0  29824-3 0  9997
2 48274  41.4678  85.0012 0006308  29.6808 330.4389 15.64293441169828
